{"type": "FeatureCollection", "features": [ {"type": "Feature", "properties": {"norad_id": 44804, "name": "CARTOSAT-3", "group": "resource", "lat": 48.32212688610646, "lon": -116.58627082314388, "alt_km": 501.5173563015078, "timestamp": "2025-12-21T11:31:42.499639+00:00", "meta": {"OBJECT_NAME": "CARTOSAT-3", "OBJECT_ID": "2019-081A", "EPOCH": "2025-12-21T04:37:54.236640", "MEAN_MOTION": 15.19214406, "ECCENTRICITY": 0.0013786, "INCLINATION": 97.4575, "RA_OF_ASC_NODE": 54.6692, "ARG_OF_PERICENTER": 56.6921, "MEAN_ANOMALY": 303.5632, "EPHEMERIS_TYPE": 0, "CLASSIFICATION_TYPE": "U", "NORAD_CAT_ID": 44804, "ELEMENT_SET_NO": 999, "REV_AT_EPOCH": 33644, "BSTAR": 8.7233e-05, "MEAN_MOTION_DOT": 1.772e-05, "MEAN_MOTION_DDOT": 0}, "tle": {"line1": "1 44804U 19081A   25355.19298885  .00001772  00000+0  87233-4 0  9992", "line2": "2 44804  97.4575  54.6692 0013786  56.6921 303.5632 15.19214406336440"}}, "geometry": {"type": "Point", "coordinates": [-116.58627082314388, 48.32212688610646]}}, {"type": "Feature", "properties": {"norad_id": 44819, "name": "GAOFEN-12 01", "group": "resource", "lat": 73.72742121560289, "lon": -150.41095619791446, "alt_km": 620.1047866444715, "timestamp": "2025-12-21T11:31:42.499650+00:00", "meta": {"OBJECT_NAME": "GAOFEN-12 01", "OBJECT_ID": "2019-082A", "EPOCH": "2025-12-21T04:34:17.485824", "MEAN_MOTION": 14.80666302, "ECCENTRICITY": 0.0001878, "INCLINATION": 97.8124, "RA_OF_ASC_NODE": 1.2497, "ARG_OF_PERICENTER": 192.3132, "MEAN_ANOMALY": 167.8035, "EPHEMERIS_TYPE": 0, "CLASSIFICATION_TYPE": "U", "NORAD_CAT_ID": 44819, "ELEMENT_SET_NO": 999, "REV_AT_EPOCH": 32775, "BSTAR": 5.0061e-05, "MEAN_MOTION_DOT": 3.34e-06, "MEAN_MOTION_DDOT": 0}, "tle": {"line1": "1 44819U 19082A   25355.19048016  .00000334  00000+0  50061-4 0  9990", "line2": "2 44819  97.8124   1.2497 0001878 192.3132 167.8035 14.80666302327757"}}, "geometry": {"type": "Point", "coordinates": [-150.41095619791446, 73.72742121560289]}}, {"type": "Feature", "properties": {"norad_id": 44873, "name": "CSG-1", "group": "resource", "lat": -78.90214651458457, "lon": -48.246080613714035, "alt_km": 630.9200333667295, "timestamp": "2025-12-21T11:31:42.499660+00:00", "meta": {"OBJECT_NAME": "CSG-1", "OBJECT_ID": "2019-092A", "EPOCH": "2025-12-21T03:52:05.568384", "MEAN_MOTION": 14.8215054, "ECCENTRICITY": 0.0001474, "INCLINATION": 97.8803, "RA_OF_ASC_NODE": 176.3584, "ARG_OF_PERICENTER": 85.9234, "MEAN_ANOMALY": 274.2147, "EPHEMERIS_TYPE": 0, "CLASSIFICATION_TYPE": "U", "NORAD_CAT_ID": 44873, "ELEMENT_SET_NO": 999, "REV_AT_EPOCH": 32510, "BSTAR": 5.6462e-05, "MEAN_MOTION_DOT": 3.97e-06, "MEAN_MOTION_DDOT": 0}, "tle": {"line1": "1 44873U 19092A   25355.16117556  .00000397  00000+0  56462-4 0  9994", "line2": "2 44873  97.8803 176.3584 0001474  85.9234 274.2147 14.82150540325102"}}, "geometry": {"type": "Point", "coordinates": [-48.246080613714035, -78.90214651458457]}}, {"type": "Feature", "properties": {"norad_id": 46277, "name": "NEMO-HD", "group": "resource", "lat": 82.69584309815917, "lon": -44.016644363239266, "alt_km": 436.48917553753745, "timestamp": "2025-12-21T11:31:42.499671+00:00", "meta": {"OBJECT_NAME": "NEMO-HD", "OBJECT_ID": "2020-061F", "EPOCH": "2025-12-21T04:53:55.895424", "MEAN_MOTION": 15.40487127, "ECCENTRICITY": 0.0001339, "INCLINATION": 97.22, "RA_OF_ASC_NODE": 54.1948, "ARG_OF_PERICENTER": 52.1974, "MEAN_ANOMALY": 307.9394, "EPHEMERIS_TYPE": 0, "CLASSIFICATION_TYPE": "U", "NORAD_CAT_ID": 46277, "ELEMENT_SET_NO": 999, "REV_AT_EPOCH": 29454, "BSTAR": 0.00018095, "MEAN_MOTION_DOT": 7.253e-05, "MEAN_MOTION_DDOT": 0}, "tle": {"line1": "1 46277U 20061F   25355.20411916  .00007253  00000+0  18095-3 0  9991", "line2": "2 46277  97.2200  54.1948 0001339  52.1974 307.9394 15.40487127294541"}}, "geometry": {"type": "Point", "coordinates": [-44.016644363239266, 82.69584309815917]}}, {"type": "Feature", "properties": {"norad_id": 46984, "name": "SENTINEL-6A", "group": "resource", "lat": 64.55909283884854, "lon": -146.665644463632, "alt_km": 1336.4598301283058, "timestamp": "2025-12-21T11:31:42.499681+00:00", "meta": {"OBJECT_NAME": "SENTINEL-6A", "OBJECT_ID": "2020-086A", "EPOCH": "2025-12-21T03:36:37.810368", "MEAN_MOTION": 12.80930855, "ECCENTRICITY": 0.0007719, "INCLINATION": 66.0395, "RA_OF_ASC_NODE": 144.8386, "ARG_OF_PERICENTER": 269.3712, "MEAN_ANOMALY": 90.6418, "EPHEMERIS_TYPE": 0, "CLASSIFICATION_TYPE": "U", "NORAD_CAT_ID": 46984, "ELEMENT_SET_NO": 999, "REV_AT_EPOCH": 23752, "BSTAR": -2.7851e-05, "MEAN_MOTION_DOT": -6.7e-07, "MEAN_MOTION_DDOT": 0}, "tle": {"line1": "1 46984U 20086A   25355.15043762 -.00000067  00000+0 -27851-4 0  9996", "line2": "2 46984  66.0395 144.8386 0007719 269.3712  90.6418 12.80930855237528"}}, "geometry": {"type": "Point", "coordinates": [-146.665644463632, 64.55909283884854]}}, {"type": "Feature", "properties": {"norad_id": 48079, "name": "GAOFEN-12 02", "group": "resource", "lat": 62.53422664788046, "lon": -174.8878853150831, "alt_km": 618.9593794754837, "timestamp": "2025-12-21T11:31:42.499692+00:00", "meta": {"OBJECT_NAME": "GAOFEN-12 02", "OBJECT_ID": "2021-026A", "EPOCH": "2025-12-21T04:31:04.259136", "MEAN_MOTION": 14.80684147, "ECCENTRICITY": 0.0003602, "INCLINATION": 97.9854, "RA_OF_ASC_NODE": 349.154, "ARG_OF_PERICENTER": 84.2308, "MEAN_ANOMALY": 275.9315, "EPHEMERIS_TYPE": 0, "CLASSIFICATION_TYPE": "U", "NORAD_CAT_ID": 48079, "ELEMENT_SET_NO": 999, "REV_AT_EPOCH": 25542, "BSTAR": 5.0162e-05, "MEAN_MOTION_DOT": 3.33e-06, "MEAN_MOTION_DDOT": 0}, "tle": {"line1": "1 48079U 21026A   25355.18824374  .00000333  00000+0  50162-4 0  9992", "line2": "2 48079  97.9854 349.1540 0003602  84.2308 275.9315 14.80684147255427"}}, "geometry": {"type": "Point", "coordinates": [-174.8878853150831, 62.53422664788046]}}, {"type": "Feature", "properties": {"norad_id": 48268, "name": "PLEIADES NEO 3", "group": "resource", "lat": -34.128274185497595, "lon": -117.60055237230289, "alt_km": 630.7985318643987, "timestamp": "2025-12-21T11:31:42.499702+00:00", "meta": {"OBJECT_NAME": "PLEIADES NEO 3", "OBJECT_ID": "2021-034A", "EPOCH": "2025-12-21T04:04:50.852928", "MEAN_MOTION": 14.81673842, "ECCENTRICITY": 0.0001362, "INCLINATION": 97.8951, "RA_OF_ASC_NODE": 67.4904, "ARG_OF_PERICENTER": 92.3995, "MEAN_ANOMALY": 267.7374, "EPHEMERIS_TYPE": 0, "CLASSIFICATION_TYPE": "U", "NORAD_CAT_ID": 48268, "ELEMENT_SET_NO": 999, "REV_AT_EPOCH": 25129, "BSTAR": 5.6588e-05, "MEAN_MOTION_DOT": 3.93e-06, "MEAN_MOTION_DDOT": 0}, "tle": {"line1": "1 48268U 21034A   25355.17003302  .00000393  00000+0  56588-4 0  9994", "line2": "2 48268  97.8951  67.4904 0001362  92.3995 267.7374 14.81673842251297"}}, "geometry": {"type": "Point", "coordinates": [-117.60055237230289, -34.128274185497595]}}, {"type": "Feature", "properties": {"norad_id": 49070, "name": "PLEIADES NEO 4", "group": "resource", "lat": 33.963814763313664, "lon": 62.428882705226734, "alt_km": 621.3554916738312, "timestamp": "2025-12-21T11:31:42.499713+00:00", "meta": {"OBJECT_NAME": "PLEIADES NEO 4", "OBJECT_ID": "2021-073E", "EPOCH": "2025-12-20T17:32:43.601280", "MEAN_MOTION": 14.81672177, "ECCENTRICITY": 0.00013249, "INCLINATION": 97.8951, "RA_OF_ASC_NODE": 67.0538, "ARG_OF_PERICENTER": 89.6187, "MEAN_ANOMALY": 270.5178, "EPHEMERIS_TYPE": 0, "CLASSIFICATION_TYPE": "U", "NORAD_CAT_ID": 49070, "ELEMENT_SET_NO": 999, "REV_AT_EPOCH": 23494, "BSTAR": -3.6645539e-05, "MEAN_MOTION_DOT": -3.4e-06, "MEAN_MOTION_DDOT": 0}, "tle": {"line1": "1 49070U 21073E   25354.73106020 -.00000340  00000+0 -36646-4 0  9998", "line2": "2 49070  97.8951  67.0538 0001324  89.6187 270.5178 14.81672177234945"}}, "geometry": {"type": "Point", "coordinates": [62.428882705226734, 33.963814763313664]}}, {"type": "Feature", "properties": {"norad_id": 49260, "name": "LANDSAT 9", "group": "resource", "lat": -0.8210162259447524, "lon": 63.58275584443869, "alt_km": 705.6383933140214, "timestamp": "2025-12-21T11:31:42.499723+00:00", "meta": {"OBJECT_NAME": "LANDSAT 9", "OBJECT_ID": "2021-088A", "EPOCH": "2025-12-21T03:17:30.808032", "MEAN_MOTION": 14.57105787, "ECCENTRICITY": 0.0001103, "INCLINATION": 98.2083, "RA_OF_ASC_NODE": 63.1261, "ARG_OF_PERICENTER": 91.6147, "MEAN_ANOMALY": 268.5177, "EPHEMERIS_TYPE": 0, "CLASSIFICATION_TYPE": "U", "NORAD_CAT_ID": 49260, "ELEMENT_SET_NO": 999, "REV_AT_EPOCH": 22507, "BSTAR": 7.8219e-05, "MEAN_MOTION_DOT": 3.07e-06, "MEAN_MOTION_DDOT": 0}, "tle": {"line1": "1 49260U 21088A   25355.13716213  .00000307  00000+0  78219-4 0  9994", "line2": "2 49260  98.2083  63.1261 0001103  91.6147 268.5177 14.57105787225072"}}, "geometry": {"type": "Point", "coordinates": [63.58275584443869, -0.8210162259447524]}}, {"type": "Feature", "properties": {"norad_id": 51444, "name": "CSG-2", "group": "resource", "lat": 78.88444691383403, "lon": 131.84977593150077, "alt_km": 614.1944837771034, "timestamp": "2025-12-21T11:31:42.499733+00:00", "meta": {"OBJECT_NAME": "CSG-2", "OBJECT_ID": "2022-008A", "EPOCH": "2025-12-21T04:40:41.881152", "MEAN_MOTION": 14.82150262, "ECCENTRICITY": 0.0001443, "INCLINATION": 97.8797, "RA_OF_ASC_NODE": 176.3899, "ARG_OF_PERICENTER": 84.9044, "MEAN_ANOMALY": 275.2334, "EPHEMERIS_TYPE": 0, "CLASSIFICATION_TYPE": "U", "NORAD_CAT_ID": 51444, "ELEMENT_SET_NO": 999, "REV_AT_EPOCH": 21022, "BSTAR": 2.656e-05, "MEAN_MOTION_DOT": 1.59e-06, "MEAN_MOTION_DDOT": 0}, "tle": {"line1": "1 51444U 22008A   25355.19492918  .00000159  00000+0  26560-4 0  9990", "line2": "2 51444  97.8797 176.3899 0001443  84.9044 275.2334 14.82150262210225"}}, "geometry": {"type": "Point", "coordinates": [131.84977593150077, 78.88444691383403]}}]}